{
    "links": {
        "self": "http://www.neowsapp.com/rest/v1/neo/3774561?api_key=iIulBulltgU6a56xZRHN4H3l9WmuAYTsLGpBGhQ2"
    },
    "id": "3774561",
    "neo_reference_id": "3774561",
    "name": "(2017 JV1)",
    "designation": "2017 JV1",
    "nasa_jpl_url": "http://ssd.jpl.nasa.gov/sbdb.cgi?sstr=3774561",
    "absolute_magnitude_h": 26.2,
    "estimated_diameter": {
        "kilometers": {
            "estimated_diameter_min": 0.0152951935,
            "estimated_diameter_max": 0.0342010925
        },
        "meters": {
            "estimated_diameter_min": 15.2951935344,
            "estimated_diameter_max": 34.201092472
        },
        "miles": {
            "estimated_diameter_min": 0.0095039897,
            "estimated_diameter_max": 0.021251567
        },
        "feet": {
            "estimated_diameter_min": 50.1810827555,
            "estimated_diameter_max": 112.2083122258
        }
    },
    "is_potentially_hazardous_asteroid": false,
    "close_approach_data": [
        {
            "close_approach_date": "1996-04-14",
            "close_approach_date_full": "1996-Apr-14 16:41",
            "epoch_date_close_approach": 829500060000,
            "relative_velocity": {
                "kilometers_per_second": "19.6441855298",
                "kilometers_per_hour": "70719.0679073761",
                "miles_per_hour": "43942.0786116693"
            },
            "miss_distance": {
                "astronomical": "0.3178883303",
                "lunar": "123.6585604867",
                "kilometers": "47555417.110736461",
                "miles": "29549565.9610307218"
            },
            "orbiting_body": "Earth"
        },
        {
            "close_approach_date": "2003-04-24",
            "close_approach_date_full": "2003-Apr-24 17:50",
            "epoch_date_close_approach": 1051206600000,
            "relative_velocity": {
                "kilometers_per_second": "15.4957724024",
                "kilometers_per_hour": "55784.7806484769",
                "miles_per_hour": "34662.4932868272"
            },
            "miss_distance": {
                "astronomical": "0.1689279268",
                "lunar": "65.7129635252",
                "kilometers": "25271258.032795916",
                "miles": "15702831.5916030008"
            },
            "orbiting_body": "Earth"
        },
        {
            "close_approach_date": "2017-05-08",
            "close_approach_date_full": "2017-May-08 14:25",
            "epoch_date_close_approach": 1494253500000,
            "relative_velocity": {
                "kilometers_per_second": "11.3319838454",
                "kilometers_per_hour": "40795.1418434663",
                "miles_per_hour": "25348.5146637916"
            },
            "miss_distance": {
                "astronomical": "0.0055674138",
                "lunar": "2.1657239682",
                "kilometers": "832873.245888606",
                "miles": "517523.4371145228"
            },
            "orbiting_body": "Moon"
        },
        {
            "close_approach_date": "2017-05-08",
            "close_approach_date_full": "2017-May-08 21:09",
            "epoch_date_close_approach": 1494277740000,
            "relative_velocity": {
                "kilometers_per_second": "11.2701408525",
                "kilometers_per_hour": "40572.5070689528",
                "miles_per_hour": "25210.1780729279"
            },
            "miss_distance": {
                "astronomical": "0.0060120331",
                "lunar": "2.3386808759",
                "kilometers": "899387.346129497",
                "miles": "558853.3825091786"
            },
            "orbiting_body": "Earth"
        },
        {
            "close_approach_date": "2024-04-09",
            "close_approach_date_full": "2024-Apr-09 01:42",
            "epoch_date_close_approach": 1712626920000,
            "relative_velocity": {
                "kilometers_per_second": "22.8135169439",
                "kilometers_per_hour": "82128.6609982146",
                "miles_per_hour": "51031.5560519184"
            },
            "miss_distance": {
                "astronomical": "0.4314575272",
                "lunar": "167.8369780808",
                "kilometers": "64545127.064587064",
                "miles": "40106482.1956429232"
            },
            "orbiting_body": "Earth"
        }
    ],
    "orbital_data": {
        "orbit_id": "2",
        "orbit_determination_date": "2017-05-08 06:46:48",
        "first_observation_date": "2017-05-03",
        "last_observation_date": "2017-05-07",
        "data_arc_in_days": 4,
        "observations_used": 55,
        "orbit_uncertainty": "7",
        "minimum_orbit_intersection": ".00344575",
        "jupiter_tisserand_invariant": "3.987",
        "epoch_osculation": "2459000.5",
        "eccentricity": ".4634765569197424",
        "semi_major_axis": "1.747475277142975",
        "inclination": "10.78294186358129",
        "ascending_node_longitude": "47.91530635153929",
        "orbital_period": "843.752333862987",
        "perihelion_distance": ".9375614523903762",
        "perihelion_argument": "220.6182636830549",
        "aphelion_distance": "2.557389101895573",
        "perihelion_time": "2458758.483653145846",
        "mean_anomaly": "103.2600223677052",
        "mean_motion": ".4266654864844008",
        "equinox": "J2000",
        "orbit_class": {
            "orbit_class_type": "APO",
            "orbit_class_description": "Near-Earth asteroid orbits which cross the Earth’s orbit similar to that of 1862 Apollo",
            "orbit_class_range": "a (semi-major axis) > 1.0 AU; q (perihelion) < 1.017 AU"
        }
    },
    "is_sentry_object": false
}